IRIDIUM 116,1 43072U 17083C   25093.67332265  .00000415  00000+0  14108-3 0  9994,2 43072  86.3987 145.7554 0002132 102.2110 257.9324 14.34219971381178
IRIDIUM 130,1 43073U 17083D   25093.64161271  .00000410  00000+0  13933-3 0  9999,2 43073  86.3995 146.0007 0001917  97.5066 262.6348 14.34219242381115
IRIDIUM 151,1 43074U 17083E   25093.68600935  .00000484  00000+0  16559-3 0  9997,2 43074  86.3988 145.7978 0002199 100.1245 260.0199 14.34220157381140
IRIDIUM 134,1 43075U 17083F   25094.14267483  .00000168  00000+0  52805-4 0  9991,2 43075  86.3987 145.6091 0001943  95.9482 264.1935 14.34218796381177
IRIDIUM 137,1 43076U 17083G   25093.59720916  .00000431  00000+0  14682-3 0  9998,2 43076  86.3993 145.9207 0002377 110.4918 249.6533 14.34221554381163
IRIDIUM 141,1 43077U 17083H   25094.14901854  .00000055  00000+0  12464-4 0  9992,2 43077  86.3984 145.5460 0002380  88.6411 271.5057 14.34218253381245
IRIDIUM 153,1 43078U 17083J   25093.75235506  .00000237  00000+0  77429-4 0  9997,2 43078  86.3922 114.2002 0002522  81.3595 278.7887 14.34219533382292
IRIDIUM 131,1 43079U 17083K   25093.64795472  .00000266  00000+0  87833-4 0  9991,2 43079  86.3992 145.9117 0002461  94.3088 265.8389 14.34218752381106
